[{"OBJECT_NAME":"STARLINK-4130","OBJECT_ID":"2022-086X","EPOCH":"2026-03-09T15:58:17.077152","MEAN_MOTION":15.08813544,"ECCENTRICITY":0.00014897,"INCLINATION":53.2186,"RA_OF_ASC_NODE":194.2295,"ARG_OF_PERICENTER":78.5274,"MEAN_ANOMALY":281.5885,"EPHEMERIS_TYPE":0,"CLASSIFICATION_TYPE":"U","NORAD_CAT_ID":53263,"ELEMENT_SET_NO":999,"REV_AT_EPOCH":20106,"BSTAR":0.00039432976,"MEAN_MOTION_DOT":5.989e-5,"MEAN_MOTION_DDOT":0},{"OBJECT_NAME":"OBJECT E","OBJECT_ID":"2025-013E","EPOCH":"2026-03-09T23:59:52.369152","MEAN_MOTION":15.10347623,"ECCENTRICITY":0.00085591,"INCLINATION":97.6477,"RA_OF_ASC_NODE":238.3736,"ARG_OF_PERICENTER":6.9171,"MEAN_ANOMALY":353.2174,"EPHEMERIS_TYPE":0,"CLASSIFICATION_TYPE":"U","NORAD_CAT_ID":62733,"ELEMENT_SET_NO":999,"REV_AT_EPOCH":6224,"BSTAR":0.00032920786,"MEAN_MOTION_DOT":5.34e-5,"MEAN_MOTION_DDOT":0}]
